start=new Date('2023-02-27T00:00:00.000Z').valueOf();
sats=[{"MEAN_ANOMALY":"261.1219","INCLINATION":"53.2138","RA_OF_ASC_NODE":"99.4098","SITE":"AFETR","ARG_OF_PERICENTER":"98.9901","ELEMENT_SET_NO":"999","MEAN_MOTION":"15.08864664","GP_ID":"227014969","MEAN_MOTION_DOT":"0.00008153","OBJECT_NAME":"STARLINK-3321","COUNTRY_CODE":"US","ECCENTRICITY":"0.00011290","EPHEMERIS_TYPE":"0","PERIAPSIS":"538.889","PERIOD":"95.436","REV_AT_EPOCH":"6453","REF_FRAME":"TEME","EPOCH":"2023-02-26T12:26:22.994016","RCS_SIZE":"LARGE","SEMIMAJOR_AXIS":"6917.805","OBJECT_ID":"2022-001A","NORAD_CAT_ID":"50803","TIME_SYSTEM":"UTC","MEAN_ELEMENT_THEORY":"SGP4","TLE_LINE2":"2 50803  53.2138  99.4098 0001129  98.9901 261.1219 15.08864664 64536","BSTAR":"0.00052938000000","FILE":"3842065","MEAN_MOTION_DDOT":"0.0000000000000","LAUNCH_DATE":"2022-01-06","DECAY_DATE":null,"TLE_LINE1":"1 50803U 22001A   23057.51832169  .00008153  00000-0  52938-3 0  9990","OBJECT_TYPE":"PAYLOAD","CENTER_NAME":"EARTH","CLASSIFICATION_TYPE":"U","APOAPSIS":"540.451"},{"REF_FRAME":"TEME","SEMIMAJOR_AXIS":"6917.866","RCS_SIZE":"LARGE","EPOCH":"2023-02-26T19:36:57.107232","REV_AT_EPOCH":"6344","PERIOD":"95.437","EPHEMERIS_TYPE":"0","PERIAPSIS":"538.706","MEAN_MOTION_DOT":"-0.00000178","OBJECT_NAME":"STARLINK-3323","ECCENTRICITY":"0.00014810","COUNTRY_CODE":"US","MEAN_MOTION":"15.08844865","GP_ID":"227067828","MEAN_ANOMALY":"267.5531","INCLINATION":"53.2135","ELEMENT_SET_NO":"999","SITE":"AFETR","RA_OF_ASC_NODE":"88.0647","ARG_OF_PERICENTER":"92.5631","APOAPSIS":"540.755","CLASSIFICATION_TYPE":"U","OBJECT_TYPE":"PAYLOAD","CENTER_NAME":"EARTH","TLE_LINE1":"1 50804U 22001B   23057.81732763 -.00000178  00000-0  69022-5 0  9997","LAUNCH_DATE":"2022-01-06","DECAY_DATE":null,"TLE_LINE2":"2 50804  53.2135  88.0647 0001481  92.5631 267.5531 15.08844865 63446","BSTAR":"0.00000690220000","FILE":"3843368","MEAN_MOTION_DDOT":"0.0000000000000","NORAD_CAT_ID":"50804","TIME_SYSTEM":"UTC","MEAN_ELEMENT_THEORY":"SGP4","OBJECT_ID":"2022-001B"},{"REV_AT_EPOCH":"6344","SEMIMAJOR_AXIS":"6917.838","RCS_SIZE":"LARGE","EPOCH":"2023-02-26T19:31:39.321120","REF_FRAME":"TEME","PERIAPSIS":"538.486","EPHEMERIS_TYPE":"0","PERIOD":"95.437","GP_ID":"227068048","MEAN_MOTION":"15.08853945","COUNTRY_CODE":"US","ECCENTRICITY":"0.00017590","OBJECT_NAME":"STARLINK-3333","MEAN_MOTION_DOT":"0.00008976","SITE":"AFETR","RA_OF_ASC_NODE":"88.0793","ELEMENT_SET_NO":"999","ARG_OF_PERICENTER":"74.5708","INCLINATION":"53.2139","MEAN_ANOMALY":"285.5478","CENTER_NAME":"EARTH","OBJECT_TYPE":"PAYLOAD","APOAPSIS":"540.920","CLASSIFICATION_TYPE":"U","DECAY_DATE":null,"LAUNCH_DATE":"2022-01-06","TLE_LINE1":"1 50805U 22001C   23057.81364955  .00008976  00000-0  58109-3 0  9997","MEAN_MOTION_DDOT":"0.0000000000000","FILE":"3843368","BSTAR":"0.00058109000000","TLE_LINE2":"2 50805  53.2139  88.0793 0001759  74.5708 285.5478 15.08853945 63445","OBJECT_ID":"2022-001C","MEAN_ELEMENT_THEORY":"SGP4","TIME_SYSTEM":"UTC","NORAD_CAT_ID":"50805"},{"TLE_LINE2":"2 50806  53.2185  88.0974 0001251  81.3618 278.7516 15.08853177 63445","BSTAR":"0.00066176000000","FILE":"3843368","MEAN_MOTION_DDOT":"0.0000000000000","NORAD_CAT_ID":"50806","TIME_SYSTEM":"UTC","MEAN_ELEMENT_THEORY":"SGP4","OBJECT_ID":"2022-001D","CLASSIFICATION_TYPE":"U","APOAPSIS":"540.571","OBJECT_TYPE":"PAYLOAD","CENTER_NAME":"EARTH","TLE_LINE1":"1 50806U 22001D   23057.80997009  .00010263  00000-0  66176-3 0  9994","LAUNCH_DATE":"2022-01-06","DECAY_DATE":null,"MEAN_MOTION_DOT":"0.00010263","OBJECT_NAME":"STARLINK-3335","COUNTRY_CODE":"US","ECCENTRICITY":"0.00012510","MEAN_MOTION":"15.08853177","GP_ID":"227066326","INCLINATION":"53.2185","MEAN_ANOMALY":"278.7516","RA_OF_ASC_NODE":"88.0974","SITE":"AFETR","ELEMENT_SET_NO":"999","ARG_OF_PERICENTER":"81.3618","REF_FRAME":"TEME","EPOCH":"2023-02-26T19:26:21.415776","RCS_SIZE":"LARGE","SEMIMAJOR_AXIS":"6917.840","REV_AT_EPOCH":"6344","PERIOD":"95.437","EPHEMERIS_TYPE":"0","PERIAPSIS":"538.840"},{"DECAY_DATE":null,"LAUNCH_DATE":"2022-01-06","TLE_LINE1":"1 50807U 22001E   23057.59652504  .00022966  00000-0  14549-2 0  9998","CENTER_NAME":"EARTH","OBJECT_TYPE":"PAYLOAD","APOAPSIS":"540.586","CLASSIFICATION_TYPE":"U","OBJECT_ID":"2022-001E","MEAN_ELEMENT_THEORY":"SGP4","TIME_SYSTEM":"UTC","NORAD_CAT_ID":"50807","MEAN_MOTION_DDOT":"0.0000000000000","FILE":"3843368","BSTAR":"0.00145490000000","TLE_LINE2":"2 50807  53.2142  89.0540 0001377  83.5061 276.6088 15.08876552 63414","PERIAPSIS":"538.681","EPHEMERIS_TYPE":"0","PERIOD":"95.435","REV_AT_EPOCH":"6341","RCS_SIZE":"LARGE","SEMIMAJOR_AXIS":"6917.769","EPOCH":"2023-02-26T14:18:59.763456","REF_FRAME":"TEME","ARG_OF_PERICENTER":"83.5061","SITE":"AFETR","RA_OF_ASC_NODE":"89.0540","ELEMENT_SET_NO":"999","INCLINATION":"53.2142","MEAN_ANOMALY":"276.6088","GP_ID":"227066576","MEAN_MOTION":"15.08876552","ECCENTRICITY":"0.00013770","COUNTRY_CODE":"US","OBJECT_NAME":"STARLINK-3353","MEAN_MOTION_DOT":"0.00022966"},{"OBJECT_ID":"2022-001F","NORAD_CAT_ID":"50808","MEAN_ELEMENT_THEORY":"SGP4","TIME_SYSTEM":"UTC","TLE_LINE2":"2 50808  53.2164  88.1340 0001916  82.9360 277.1850 15.08845149 63445","BSTAR":"0.00034973000000","FILE":"3843368","MEAN_MOTION_DDOT":"0.0000000000000","LAUNCH_DATE":"2022-01-06","DECAY_DATE":null,"TLE_LINE1":"1 50808U 22001F   23057.80261365  .00005283  00000-0  34973-3 0  9991","OBJECT_TYPE":"PAYLOAD","CENTER_NAME":"EARTH","CLASSIFICATION_TYPE":"U","APOAPSIS":"541.055","INCLINATION":"53.2164","MEAN_ANOMALY":"277.1850","ARG_OF_PERICENTER":"82.9360","SITE":"AFETR","RA_OF_ASC_NODE":"88.1340","ELEMENT_SET_NO":"999","MEAN_MOTION":"15.08845149","GP_ID":"227067328","MEAN_MOTION_DOT":"0.00005283","OBJECT_NAME":"STARLINK-3355","COUNTRY_CODE":"US","ECCENTRICITY":"0.00019160","EPHEMERIS_TYPE":"0","PERIAPSIS":"538.404","PERIOD":"95.437","REV_AT_EPOCH":"6344","REF_FRAME":"TEME","EPOCH":"2023-02-26T19:15:45.819360","RCS_SIZE":"LARGE","SEMIMAJOR_AXIS":"6917.865"},{"DECAY_DATE":null,"LAUNCH_DATE":"2022-01-06","TLE_LINE1":"1 50809U 22001G   23057.80628723  .00008701  00000-0  56384-3 0  9995","CENTER_NAME":"EARTH","OBJECT_TYPE":"PAYLOAD","CLASSIFICATION_TYPE":"U","APOAPSIS":"540.495","OBJECT_ID":"2022-001G","MEAN_ELEMENT_THEORY":"SGP4","TIME_SYSTEM":"UTC","NORAD_CAT_ID":"50809","MEAN_MOTION_DDOT":"0.0000000000000","FILE":"3843368","TLE_LINE2":"2 50809  53.2160  88.1164 0001157  92.7119 267.4006 15.08856465 63442","BSTAR":"0.00056384000000","PERIAPSIS":"538.895","EPHEMERIS_TYPE":"0","PERIOD":"95.437","REV_AT_EPOCH":"6344","EPOCH":"2023-02-26T19:21:03.216672","SEMIMAJOR_AXIS":"6917.830","RCS_SIZE":"LARGE","REF_FRAME":"TEME","SITE":"AFETR","RA_OF_ASC_NODE":"88.1164","ELEMENT_SET_NO":"999","ARG_OF_PERICENTER":"92.7119","MEAN_ANOMALY":"267.4006","INCLINATION":"53.2160","GP_ID":"227067548","MEAN_MOTION":"15.08856465","ECCENTRICITY":"0.00011570","COUNTRY_CODE":"US","MEAN_MOTION_DOT":"0.00008701","OBJECT_NAME":"STARLINK-3232"},{"NORAD_CAT_ID":"50810","TIME_SYSTEM":"UTC","MEAN_ELEMENT_THEORY":"SGP4","OBJECT_ID":"2022-001H","BSTAR":"-0.00021496000000","TLE_LINE2":"2 50810  53.2156  88.1438 0000976 101.7630 258.3471 15.08835468 63445","FILE":"3843368","MEAN_MOTION_DDOT":"0.0000000000000","TLE_LINE1":"1 50810U 22001H   23057.79893100 -.00003707  00000-0 -21496-3 0  9997","LAUNCH_DATE":"2022-01-06","DECAY_DATE":null,"APOAPSIS":"540.434","CLASSIFICATION_TYPE":"U","OBJECT_TYPE":"PAYLOAD","CENTER_NAME":"EARTH","INCLINATION":"53.2156","MEAN_ANOMALY":"258.3471","SITE":"AFETR","ARG_OF_PERICENTER":"101.7630","ELEMENT_SET_NO":"999","RA_OF_ASC_NODE":"88.1438","MEAN_MOTION_DOT":"-0.00003707","OBJECT_NAME":"STARLINK-3348","ECCENTRICITY":"0.00009760","COUNTRY_CODE":"US","MEAN_MOTION":"15.08835468","GP_ID":"227066827","PERIOD":"95.438","EPHEMERIS_TYPE":"0","PERIAPSIS":"539.084","REF_FRAME":"TEME","SEMIMAJOR_AXIS":"6917.894","RCS_SIZE":"LARGE","EPOCH":"2023-02-26T19:10:27.638400","REV_AT_EPOCH":"6344"},{"MEAN_ANOMALY":"259.8423","INCLINATION":"53.2148","SITE":"AFETR","RA_OF_ASC_NODE":"88.1780","ARG_OF_PERICENTER":"100.2700","ELEMENT_SET_NO":"999","MEAN_MOTION":"15.08835998","GP_ID":"227067077","MEAN_MOTION_DOT":"-0.00005896","OBJECT_NAME":"STARLINK-3347","ECCENTRICITY":"0.00011650","COUNTRY_CODE":"US","EPHEMERIS_TYPE":"0","PERIAPSIS":"538.952","PERIOD":"95.438","REV_AT_EPOCH":"6344","REF_FRAME":"TEME","EPOCH":"2023-02-26T18:59:51.498528","RCS_SIZE":"LARGE","SEMIMAJOR_AXIS":"6917.893","OBJECT_ID":"2022-001J","NORAD_CAT_ID":"50811","MEAN_ELEMENT_THEORY":"SGP4","TIME_SYSTEM":"UTC","TLE_LINE2":"2 50811  53.2148  88.1780 0001165 100.2700 259.8423 15.08835998 63441","BSTAR":"-0.00035268000000","FILE":"3843368","MEAN_MOTION_DDOT":"0.0000000000000","LAUNCH_DATE":"2022-01-06","DECAY_DATE":null,"TLE_LINE1":"1 50811U 22001J   23057.79156827 -.00005896  00000-0 -35268-3 0  9999","OBJECT_TYPE":"PAYLOAD","CENTER_NAME":"EARTH","CLASSIFICATION_TYPE":"U","APOAPSIS":"540.564"},{"MEAN_MOTION":"15.08875246","GP_ID":"227007423","MEAN_MOTION_DOT":"0.00020785","OBJECT_NAME":"STARLINK-3338","ECCENTRICITY":"0.00012760","COUNTRY_CODE":"US","INCLINATION":"53.2172","MEAN_ANOMALY":"274.1799","SITE":"AFETR","RA_OF_ASC_NODE":"89.2271","ARG_OF_PERICENTER":"85.9339","ELEMENT_SET_NO":"999","REV_AT_EPOCH":"6340","REF_FRAME":"TEME","SEMIMAJOR_AXIS":"6917.773","RCS_SIZE":"LARGE","EPOCH":"2023-02-26T13:22:04.856160","EPHEMERIS_TYPE":"0","PERIAPSIS":"538.755","PERIOD":"95.435","TLE_LINE2":"2 50812  53.2172  89.2271 0001276  85.9339 274.1799 15.08875246 63408","BSTAR":"0.00131890000000","FILE":"3841853","MEAN_MOTION_DDOT":"0.0000000000000","OBJECT_ID":"2022-001K","NORAD_CAT_ID":"50812","TIME_SYSTEM":"UTC","MEAN_ELEMENT_THEORY":"SGP4","OBJECT_TYPE":"PAYLOAD","CENTER_NAME":"EARTH","APOAPSIS":"540.520","CLASSIFICATION_TYPE":"U","LAUNCH_DATE":"2022-01-06","DECAY_DATE":null,"TLE_LINE1":"1 50812U 22001K   23057.55700065  .00020785  00000-0  13189-2 0  9992"}];
